IRIDIUM 171             
1 43929U 19002H   26027.50799628  .00000342  00000+0  11490-3 0  9998
2 43929  86.3936  52.6618 0002138  86.3974 273.7466 14.34219059368799
IRIDIUM 170             
1 43930U 19002J   26027.81182869  .00001424  00000+0  22201-3 0  9991
2 43930  86.6053  52.2352 0002304  91.0963 269.0518 14.72240342378609
IRIDIUM 167             
1 43931U 19002K   26027.50164163  .00000430  00000+0  14646-3 0  9995
2 43931  86.3927  52.3949 0002291  79.2547 280.8907 14.34215816368799
IRIDIUM 181             
1 56726U 23068S   26027.64510514  .00000586  00000+0  16809-3 0  9993
2 56726  86.4517 115.5586 0001857 103.3059 256.8350 14.43311652142165
IRIDIUM 177             
1 56727U 23068T   26027.98164022  .00001645  00000+0  21309-3 0  9998
2 56727  86.1937  35.3550 0002764  93.2370 266.9167 14.80226132145621
IRIDIUM 174             
1 56728U 23068U   26028.00335307  .00001191  00000+0  18496-3 0  9998
2 56728  86.6055  52.2880 0002486  94.2479 265.9023 14.72238857145396
IRIDIUM 178             
1 56729U 23068V   26027.56511674  .00001952  00000+0  25357-3 0  9991
2 56729  86.6553  84.1472 0003177  76.1527 284.0048 14.80205050145568
IRIDIUM 179             
1 56730U 23068W   26027.62734843  .00002063  00000+0  26815-3 0  9999
2 56730  86.6766  92.6884 0002007  91.8558 268.2894 14.80223156145577
